CHINASAT 9B             
1 49125U 21080A   26197.93155833 -.00000322  00000+0  00000+0 0  9990
2 49125   0.0544 247.0564 0002216 258.9866 225.4462  1.00267936 17949
SHIJIAN-21 (SJ-21)      
1 49330U 21094A   26198.65344269 -.00000358  00000+0  00000+0 0  9995
2 49330   5.1834  60.9942 0051571 168.9435  68.7159  1.00276942  5661
SES-17                  
1 49332U 21095A   26197.75566520 -.00000283  00000+0  00000+0 0  9991
2 49332   0.0243  50.5252 0000833  64.0939  24.8920  1.00269281 18155
SYRACUSE 4A             
1 49333U 21095B   26198.41941830  .00000000  00000+0  00000+0 0  9993
2 49333   0.0229  68.2620 0001685  39.9155  23.5657  1.00270486 18255
QZS-1R (MICHIBIKI-1R)   
1 49336U 21096A   26198.56919843 -.00000311  00000+0  00000+0 0  9998
2 49336  37.5223  79.1315 0755352 272.2799 280.3110  1.00244494 17315
ZHONGXING-1D            
1 49505U 21114A   26198.65008718 -.00000346  00000+0  00000+0 0  9995
2 49505   0.0266 236.6110 0000570  16.7297  46.2890  1.00267088 17124
STPSAT-6                
1 49817U 21118A   26197.96059179 -.00000055  00000+0  00000+0 0  9992
2 49817   0.3958  85.0877 0000928 244.0511 199.6623  1.00270380 16876
EXPRESS AMU-7           
1 50001U 21123A   26198.15407660 -.00000253  00000+0  00000+0 0  9999
2 50001   0.0304 276.9807 0000397  23.9521 194.5046  1.00272238 16848
EXPRESS AMU-3           
1 50002U 21123B   26197.89551023  .00000000  00000+0  00000+0 0  9992
2 50002   0.0145 344.9181 0000346 324.0235  51.0553  1.00271212  7339
TIANLIAN 2-02           
1 50005U 21124A   26198.58694733 -.00000024  00000+0  00000+0 0  9996
2 50005   0.8784  85.6331 0001637 160.7929  71.2278  1.00271022 16926
TURKSAT 5B              
1 50212U 21126A   26198.06241519  .00000136  00000+0  00000+0 0  9994
2 50212   0.0698 341.4108 0002301  12.6933   5.2373  1.00270971 16594
INMARSAT 6-F1           
1 50319U 21128A   26198.64093703  .00000000  00000+0  00000+0 0  9998
2 50319   0.0165  51.5098 0000117  46.6361 151.8079  1.00269365 16566
SHIYAN-12 01 (SY-12 01) 
1 50321U 21129A   26198.77302700  .00000137  00000+0  00000+0 0  9997
2 50321   3.7517  79.4981 0002605 288.1588 241.4506  1.00052688 16804
SHIYAN-12 02 (SY-12 02) 
1 50322U 21129B   26198.77540042 -.00000372  00000+0  00000+0 0  9993
2 50322   3.7507  79.4976 0003144  68.7419 178.7607  1.00476084 16806
TJS-9                   
1 50574U 21135A   26198.65156052 -.00000308  00000+0  00000+0 0  9999
2 50574   0.0524 100.3443 0002131 331.3879 235.5421  1.00271437 16734
GOES 18                 
1 51850U 22021A   26198.59726072  .00000087  00000+0  00000+0 0  9993
2 51850   0.0143 128.8784 0000438  42.9250 201.6142  1.00271942  6899
ZHONGXING-6D            
1 52255U 22038A   26197.83400887 -.00000364  00000+0  00000+0 0  9999
2 52255   0.0170 218.2431 0000739 323.3346 178.4012  1.00271153 15721
NILESAT 301             
1 52817U 22061A   26198.40910491 -.00000068  00000+0  00000+0 0  9991
2 52817   0.0456   5.7590 0003559  75.6357 354.1118  1.00269870 15047
CMS-02 (GSAT-24)        
1 52903U 22067A   26198.07047523 -.00000174  00000+0  00000+0 0  9991
2 52903   0.0615 252.5731 0001030 106.2037  44.4622  1.00270649 14906
MEASAT 3D               
1 52904U 22067B   26198.66610444 -.00000251  00000+0  00000+0 0  9991
2 52904   0.0392 320.0482 0000533  66.6614 240.0700  1.00270813 14959
SES-22                  
1 52933U 22071A   26198.59682738  .00000095  00000+0  00000+0 0  9990
2 52933   0.0195  39.2206 0000900  69.3391 262.6878  1.00272724  7822
WFOV (USA 332)          
1 52940U 22073A   26198.22025366 -.00000374  00000+0  00000+0 0  9999
2 52940   3.7860  78.1472 0001418 216.5890 198.8237  1.00266281 14672
TIANLIAN 2-03           
1 53100U 22078A   26198.36502959  .00000062  00000+0  00000+0 0  9999
2 53100   0.7452  77.5281 0000832  15.2018 344.5007  1.00271316 14840
SBIRS GEO-6 (USA 336)   
1 53355U 22092A   26198.56364054 -.00000300  00000+0  00000+0 0  9997
2 53355   3.2072 317.9973 0001760 154.7241 164.5643  1.00270988 14531
EUTELSAT KONNECT VHTS   
1 53765U 22110A   26198.55361469  .00000007  00000+0  00000+0 0  9992
2 53765   0.0590  98.4288 0002790 347.9880  50.9355  1.00269893  7145
ZHONGXING-1E            
1 53813U 22112A   26198.65578480  .00000000  00000+0  00000+0 0  9995
2 53813   0.0179 231.5316 0000720  40.7684 340.6741  1.00270472 14157
SES-20                  
1 53960U 22123A   26198.60393409 -.00000110  00000+0  00000+0 0  9994
2 53960   0.0137  65.5896 0001915  25.7401 318.4014  1.00268981 13831
SES-21                  
1 53961U 22123B   26198.59838740  .00000000  00000+0  00000+0 0  9992
2 53961   0.0387  39.7744 0000843  76.6851 263.4582  1.00268026  7514
GALAXY 33 (G-33)        
1 54026U 22128A   26198.59804072  .00000070  00000+0  00000+0 0  9998
2 54026   0.0155  60.9088 0001837  52.7680 264.0152  1.00269706 14048
GALAXY 34 (G-34)        
1 54027U 22128B   26198.59882073  .00000050  00000+0  00000+0 0  9994
2 54027   0.0093  67.4629 0001391  57.0681 257.4459  1.00271408 14214
ANGOSAT 2               
1 54033U 22131A   26197.86086317  .00000125  00000+0  00000+0 0  9994
2 54033   0.0202 116.8851 0000179 236.2611 274.4367  1.00271065 13772
EUTELSAT HOTBIRD 13F    
1 54048U 22134A   26198.62690086  .00000077  00000+0  00000+0 0  9998
2 54048   0.0551 285.1225 0001976  73.9931 175.0154  1.00270894 13686
