OBJECT_NAME,OBJECT_ID,EPOCH,MEAN_MOTION,ECCENTRICITY,INCLINATION,RA_OF_ASC_NODE,ARG_OF_PERICENTER,MEAN_ANOMALY,EPHEMERIS_TYPE,CLASSIFICATION_TYPE,NORAD_CAT_ID,ELEMENT_SET_NO,REV_AT_EPOCH,BSTAR,MEAN_MOTION_DOT,MEAN_MOTION_DDOT
CHINASAT 9B,2021-080A,2026-07-16T22:21:26.639712,1.00267936,.00022163,0.0544,247.0564,258.9866,225.4462,0,U,49125,999,1794,0,-.322E-5,0
SHIJIAN-21 (SJ-21),2021-094A,2026-07-17T15:40:57.448416,1.00276942,.00515719,5.1834,60.9942,168.9435,68.7159,0,U,49330,999,566,0,-.358E-5,0
SES-17,2021-095A,2026-07-16T18:08:09.473280,1.00269281,.00008335,0.0243,50.5252,64.0939,24.8920,0,U,49332,999,1815,0,-.283E-5,0
SYRACUSE 4A,2021-095B,2026-07-17T10:03:57.741120,1.00270486,.00016852,0.0229,68.2620,39.9155,23.5657,0,U,49333,999,1825,0,0,0
QZS-1R (MICHIBIKI-1R),2021-096A,2026-07-17T13:39:38.744352,1.00244494,.07553529,37.5223,79.1315,272.2799,280.3110,0,U,49336,999,1731,0,-.311E-5,0
ZHONGXING-1D,2021-114A,2026-07-17T15:36:07.532352,1.00267088,.00005709,0.0266,236.6110,16.7297,46.2890,0,U,49505,999,1712,0,-.346E-5,0
STPSAT-6,2021-118A,2026-07-16T23:03:15.130656,1.00270380,.00009286,0.3958,85.0877,244.0511,199.6623,0,U,49817,999,1687,0,-.55E-6,0
EXPRESS AMU-7,2021-123A,2026-07-17T03:41:52.218240,1.00272238,.00003976,0.0304,276.9807,23.9521,194.5046,0,U,50001,999,1684,0,-.253E-5,0
EXPRESS AMU-3,2021-123B,2026-07-16T21:29:32.083872,1.00271212,.00003461,0.0145,344.9181,324.0235,51.0553,0,U,50002,999,733,0,0,0
TIANLIAN 2-02,2021-124A,2026-07-17T14:05:12.249312,1.00271022,.0001637,0.8784,85.6331,160.7929,71.2278,0,U,50005,999,1692,0,-.24E-6,0
TURKSAT 5B,2021-126A,2026-07-17T01:29:52.672416,1.00270971,.00023014,0.0698,341.4108,12.6933,5.2373,0,U,50212,999,1659,0,.136E-5,0
INMARSAT 6-F1,2021-128A,2026-07-17T15:22:56.959392,1.00269365,.0000117,0.0165,51.5098,46.6361,151.8079,0,U,50319,999,1656,0,0,0
SHIYAN-12 01 (SY-12 01),2021-129A,2026-07-17T18:33:09.532800,1.00052688,.0002605,3.7517,79.4981,288.1588,241.4506,0,U,50321,999,1680,0,.137E-5,0
SHIYAN-12 02 (SY-12 02),2021-129B,2026-07-17T18:36:34.596288,1.00476084,.0003144,3.7507,79.4976,68.7419,178.7607,0,U,50322,999,1680,0,-.372E-5,0
TJS-9,2021-135A,2026-07-17T15:38:14.828928,1.00271437,.00021317,0.0524,100.3443,331.3879,235.5421,0,U,50574,999,1673,0,-.308E-5,0
GOES 18,2022-021A,2026-07-17T14:20:03.326208,1.00271942,.00004387,0.0143,128.8784,42.9250,201.6142,0,U,51850,999,689,0,.87E-6,0
ZHONGXING-6D,2022-038A,2026-07-16T20:00:58.366368,1.00271153,.00007393,0.0170,218.2431,323.3346,178.4012,0,U,52255,999,1572,0,-.364E-5,0
NILESAT 301,2022-061A,2026-07-17T09:49:06.664224,1.00269870,.00035599,0.0456,5.7590,75.6357,354.1118,0,U,52817,999,1504,0,-.68E-6,0
CMS-02 (GSAT-24),2022-067A,2026-07-17T01:41:29.059872,1.00270649,.00010304,0.0615,252.5731,106.2037,44.4622,0,U,52903,999,1490,0,-.174E-5,0
MEASAT 3D,2022-067B,2026-07-17T15:59:11.423616,1.00270813,.00005334,0.0392,320.0482,66.6614,240.0700,0,U,52904,999,1495,0,-.251E-5,0
SES-22,2022-071A,2026-07-17T14:19:25.885632,1.00272724,.00009009,0.0195,39.2206,69.3391,262.6878,0,U,52933,999,782,0,.95E-6,0
WFOV (USA 332),2022-073A,2026-07-17T05:17:09.916224,1.00266281,.00014186,3.7860,78.1472,216.5890,198.8237,0,U,52940,999,1467,0,-.374E-5,0
TIANLIAN 2-03,2022-078A,2026-07-17T08:45:38.556576,1.00271316,.0000832,0.7452,77.5281,15.2018,344.5007,0,U,53100,999,1484,0,.62E-6,0
SBIRS GEO-6 (USA 336),2022-092A,2026-07-17T13:31:38.542656,1.00270988,.00017606,3.2072,317.9973,154.7241,164.5643,0,U,53355,999,1453,0,-.3E-5,0
EUTELSAT KONNECT VHTS,2022-110A,2026-07-17T13:17:12.309216,1.00269893,.00027904,0.0590,98.4288,347.9880,50.9355,0,U,53765,999,714,0,.7E-7,0
ZHONGXING-1E,2022-112A,2026-07-17T15:44:19.806720,1.00270472,.00007208,0.0179,231.5316,40.7684,340.6741,0,U,53813,999,1415,0,0,0
SES-20,2022-123A,2026-07-17T14:29:39.905376,1.00268981,.00019151,0.0137,65.5896,25.7401,318.4014,0,U,53960,999,1383,0,-.11E-5,0
SES-21,2022-123B,2026-07-17T14:21:40.671360,1.00268026,.00008431,0.0387,39.7744,76.6851,263.4582,0,U,53961,999,751,0,0,0
GALAXY 33 (G-33),2022-128A,2026-07-17T14:21:10.718208,1.00269706,.00018371,0.0155,60.9088,52.7680,264.0152,0,U,54026,999,1404,0,.7E-6,0
GALAXY 34 (G-34),2022-128B,2026-07-17T14:22:18.111072,1.00271408,.00013917,0.0093,67.4629,57.0681,257.4459,0,U,54027,999,1421,0,.5E-6,0
ANGOSAT 2,2022-131A,2026-07-16T20:39:38.577888,1.00271065,.00001796,0.0202,116.8851,236.2611,274.4367,0,U,54033,999,1377,0,.125E-5,0
EUTELSAT HOTBIRD 13F,2022-134A,2026-07-17T15:02:44.234304,1.00270894,.00019768,0.0551,285.1225,73.9931,175.0154,0,U,54048,999,1368,0,.77E-6,0
